[{"OBJECT_NAME":"STARLINK-30517","OBJECT_ID":"2023-153E","EPOCH":"2026-03-09T22:00:01.999584","MEAN_MOTION":15.26715398,"ECCENTRICITY":0.00014756,"INCLINATION":43.0005,"RA_OF_ASC_NODE":65.9087,"ARG_OF_PERICENTER":252.6066,"MEAN_ANOMALY":315.7232,"EPHEMERIS_TYPE":0,"CLASSIFICATION_TYPE":"U","NORAD_CAT_ID":57995,"ELEMENT_SET_NO":999,"REV_AT_EPOCH":578,"BSTAR":0.0015549863,"MEAN_MOTION_DOT":0.00041655,"MEAN_MOTION_DDOT":0},{"OBJECT_NAME":"WT 1B","OBJECT_ID":"2019-032G","EPOCH":"2026-03-09T21:42:21.881088","MEAN_MOTION":15.25021485,"ECCENTRICITY":0.0008099,"INCLINATION":44.9738,"RA_OF_ASC_NODE":242.0209,"ARG_OF_PERICENTER":49.7728,"MEAN_ANOMALY":310.3861,"EPHEMERIS_TYPE":0,"CLASSIFICATION_TYPE":"U","NORAD_CAT_ID":44316,"ELEMENT_SET_NO":999,"REV_AT_EPOCH":37191,"BSTAR":0.00065022477,"MEAN_MOTION_DOT":0.00016297,"MEAN_MOTION_DDOT":0}]
